SENTINEL-6              
1 46984U 20086A   24263.62543264 -.00000060  00000+0  44204-5 0  9991
2 46984  66.0446  15.1205 0007796 269.4160  90.5962 12.80928134178926
